137P/Shoemaker-Levy,e,4.8541,233.0223,141.0432,4.520611,0.1025436,0.57358583,99.6889,08/12.0/2021,2000,g 11.0,4.0
# From MPEC 2016-U66
138P/Shoemaker-Levy,e,10.0908,309.3292,95.5397,3.621921,0.1429867,0.53061657,118.9726,08/12.0/2021,2000,g 15.0,6.0
# From MPEC 2020-HN5
139P/Vaisala-Oterma,e,2.3342,242.1679,165.7158,4.522092,0.1024932,0.24691344,137.4733,08/12.0/2021,2000,g  9.5,4.0
# From MPEC 2015-E14
140P/Bowell-Skiff,e,3.8354,343.2687,172.8586,6.428180,0.0604745,0.69163914,132.9805,08/12.0/2021,2000,g 11.5,6.0
# From MPEC 2021-AJ0
141P/Machholz,e,13.9451,241.8413,153.5509,3.057303,0.1843726,0.73576681,44.0115,08/12.0/2021,2000,g 14.7,4.0
# From MPC 71683
142P/Ge-Wang,e,12.2514,175.9331,173.9437,5.000472,0.0881429,0.49743883,8.0580,08/12.0/2021,2000,g  9.0,4.0
# From MPEC 2021-N06
143P/Kowal-Mrkos,e,4.6986,245.2097,320.3825,4.281520,0.1112518,0.41087225,132.9195,08/12.0/2021,2000,g 13.5,2.0
# From MPC104795
144P/Kushida,e,3.9379,243.2349,216.2900,3.820460,0.1319868,0.63594666,241.6536,08/12.0/2021,2000,g  8.5,8.0
# From MPC108598
145P/Shoemaker-Levy,e,11.2739,26.7885,10.2403,4.138260,0.1170786,0.54155083,168.6541,08/12.0/2021,2000,g 13.5,4.0
# From MPC100284
146P/Shoemaker-LINEAR,e,23.0986,53.3943,316.9518,4.031996,0.1217374,0.64709915,227.3636,08/12.0/2021,2000,g 15.0,4.0
# From MPC 75720
147P/Kushida-Muramatsu,e,2.3288,92.8977,349.4550,4.004778,0.1229805,0.22750287,255.6330,08/12.0/2021,2000,g 14.0,4.0
# From MPEC 2014-R70
148P/Anderson-LINEAR,e,3.6579,89.2294,7.9333,3.621375,0.1430190,0.55000525,316.3012,08/12.0/2021,2000,g  9.0,4.0
# From MPC 75720
149P/Mueller,e,37.1738,144.5937,36.9092,4.183805,0.1151720,0.35062207,115.8083,08/12.0/2021,2000,g  8.0,8.0
# From MPC 75720
150P/LONEOS,e,18.5057,272.3671,245.5675,3.879441,0.1289883,0.54721792,238.1519,08/12.0/2021,2000,g 13.5,4.0
# From MPEC 2015-Q71
151P/Helin,e,4.7287,143.1576,216.0516,5.763408,0.0712336,0.57357266,151.8720,08/12.0/2021,2000,g 10.0,6.0
# From MPEC 2021-P47
152P/Helin-Lawrence,e,9.8801,91.8602,163.9199,4.477600,0.1040246,0.30878276,343.9205,08/12.0/2021,2000,g 11.5,4.0
# From MPC 46101
153P/Ikeya-Zhang,e,27.8421,93.1756,35.0685,50.61685,0.0027369,0.98962628,0.0000,03/05.5109/2002,2000,g  9.0,4.0
# From MPC 87068
154P/Brewington,e,17.6330,343.0391,47.8396,4.802627,0.0936453,0.67572231,262.8912,08/12.0/2021,2000,g  2.5,12.0
# From MPEC 2021-F20
155P/Shoemaker,e,6.3965,97.1912,14.6164,6.577159,0.0584314,0.72619454,37.1693,08/12.0/2021,2000,g 13.8,4.0
# From MPEC 2021-O56
156P/Russell-LINEAR,e,17.2625,35.3616,0.4400,3.461029,0.1530722,0.61486119,40.8869,08/12.0/2021,2000,g 15.5,2.0
# From MPEC 2021-P47
157P/Tritton,e,12.4460,287.6683,154.9061,3.550637,0.1473142,0.55766979,302.0390,08/12.0/2021,2000,g 10.0,4.0
# From MPEC 2021-P47
158P/Kowal-LINEAR,e,8.0140,135.5244,172.2455,5.012802,0.0878180,0.04263921,8.0798,08/12.0/2021,2000,g  9.0,4.0
# From MPEC 2021-N06
159P/LONEOS,e,23.4670,54.9772,4.5664,5.853903,0.0695882,0.38180983,81.9755,08/12.0/2021,2000,g 10.0,4.0
# From MPEC 2021-J28
160P/LINEAR,e,15.6172,333.3589,12.7131,3.774571,0.1344011,0.52632186,83.1344,08/12.0/2021,2000,g 15.5,2.0
# From MPC 75721
161P/Hartley-IRAS,e,95.7875,1.5512,46.9553,7.724257,0.0459112,0.83482820,271.1689,08/12.0/2021,2000,g  8.5,6.0
# From MPEC 2021-N06
162P/Siding Spring,e,27.5547,30.9052,357.1466,3.091188,0.1813494,0.58296103,44.8231,08/12.0/2021,2000,g 12.0,4.0
# From MPEC 2020-HN5
163P/NEAT,e,12.7087,102.0848,349.6020,3.767352,0.1347876,0.45189064,99.4715,08/12.0/2021,2000,g 14.5,4.0
# From MPEC 2021-F20
164P/Christensen,e,16.2569,88.2881,325.8333,3.656521,0.1409620,0.54013529,164.7211,08/12.0/2021,2000,g 11.0,4.0
# From MPC 75721
165P/LINEAR,e,15.8957,0.8440,126.0012,17.87663,0.0130399,0.61499831,101.1898,08/12.0/2021,2000,g 11.5,2.0
# From MPC 75722
166P/NEAT,e,15.3703,64.4366,321.4620,13.81850,0.0191873,0.38359328,134.8243,08/12.0/2021,2000,g  5.5,4.0
# From MPC 75722
167P/CINEOS,e,19.1190,295.6657,344.5445,16.21805,0.0150906,0.27195768,111.6242,08/12.0/2021,2000,g  9.5,2.0
# From MPC102101
168P/Hergenrother,e,21.6217,355.4523,14.9987,3.582270,0.1453673,0.62096853,107.2253,08/12.0/2021,2000,g 15.5,4.0
# From MPEC 2021-N06
169P/NEAT,e,11.2987,176.1059,218.0486,2.601340,0.2349138,0.76821360,282.0762,08/12.0/2021,2000,g 16.0,2.0
# From MPEC 2021-O56
170P/Christensen,e,10.1251,142.9224,225.6372,4.198996,0.1145476,0.30380728,289.2979,08/12.0/2021,2000,g 12.0,4.0
# From MPC102102
171P/Spahr,e,21.9348,101.6944,347.0750,3.555263,0.1470268,0.50159996,138.4595,08/12.0/2021,2000,g 13.5,4.0
# From MPEC 2021-BE3
172P/Yeung,e,11.2279,30.8901,209.4121,4.213296,0.1139649,0.20537286,183.8740,08/12.0/2021,2000,g 13.0,4.0
# From MPEC 2021-J28
173P/Mueller,e,16.4943,100.4025,29.2094,5.705097,0.0723285,0.26083851,350.8171,08/12.0/2021,2000,g  7.5,4.0
# From MPC 92985
174P/Echeclus,e,4.3434,173.2154,163.1182,10.72102,0.0280769,0.45743168,64.5949,08/12.0/2021,2000,g  9.4,2.0
# From MPC114608
175P/Hergenrother,e,6.0452,123.4218,57.3335,3.457912,0.1532792,0.43522039,103.6573,08/12.0/2021,2000,g 14.0,4.0
# From MPC 89015
176P/LINEAR,e,0.2347,345.9255,34.9266,3.194595,0.1726157,0.19307513,279.1814,08/12.0/2021,2000,g 15.1,2.0
# From MPEC 2020-L06
177P/Barnard,e,31.2672,272.2231,60.2691,24.42844,0.0081632,0.95532137,44.5440,08/12.0/2021,2000,g 15.0,4.0
# From MPEC 2021-F20
178P/Hug-Bell,e,11.0885,102.8718,297.7928,3.632040,0.1423895,0.48208564,55.7224,08/12.0/2021,2000,g 14.6,4.0
# From MPC 75723
179P/Jedicke,e,19.8980,115.5188,296.8156,5.934486,0.0681757,0.30603425,340.1892,08/12.0/2021,2000,g  2.5,8.0
# From MPC100284
180P/NEAT,e,16.8656,84.5686,94.7908,3.863352,0.1297949,0.35303288,269.1880,08/12.0/2021,2000,g 11.0,4.0
# From MPC 89012
181P/Shoemaker-Levy,e,17.4857,35.4088,336.2354,3.873616,0.1292794,0.70059880,340.6393,08/12.0/2021,2000,g 11.5,4.0
# From MPEC 2014-J10
182P/LONEOS,e,16.2241,72.4816,54.1810,2.951832,0.1943420,0.66316021,306.8975,08/12.0/2021,2000,g 18.0,4.0
# From MPC110085
183P/Korlevic-Juric,e,18.8195,4.4319,166.7531,4.547242,0.1016440,0.13498694,136.8807,08/12.0/2021,2000,g 12.5,2.0
# From MPEC 2020-W26
184P/Lovas,e,4.5732,173.2503,186.4619,3.793981,0.1333710,0.55100792,38.6474,08/12.0/2021,2000,g 13.5,4.0
# From MPC109593
185P/Petriew,e,14.0078,214.1001,181.8737,3.098822,0.1806796,0.69931476,233.5091,08/12.0/2021,2000,g 15.0,4.0
# From MPEC 2020-W26
186P/Garradd,e,28.8693,326.6391,275.9350,4.923180,0.0902268,0.12154334,81.1834,08/12.0/2021,2000,g  7.5,4.0
# From MPEC 2020-SI8
187P/LINEAR,e,13.6342,109.9165,131.8111,4.569113,0.1009151,0.15207134,119.5929,08/12.0/2021,2000,g  9.0,4.0
# From MPC106349
188P/LINEAR-Mueller,e,10.5251,358.9633,26.5625,4.373826,0.1077486,0.41597775,176.2733,08/12.0/2021,2000,g 11.5,4.0
# From MPC106349
189P/NEAT,e,20.0695,281.7295,16.2954,2.946441,0.1948756,0.58875608,285.5955,08/12.0/2021,2000,g 19.0,4.0
# From MPEC 2020-K19
190P/Mueller,e,2.1743,335.5795,50.2810,4.233770,0.1131392,0.52151589,220.7907,08/12.0/2021,2000,g 13.0,4.0
# From MPEC 2021-BE3
191P/McNaught,e,8.8427,98.2325,284.0165,3.634364,0.1422530,0.38580535,20.6073,08/12.0/2021,2000,g 13.0,4.0
# From MPC 75724
192P/Shoemaker-Levy,e,24.5613,51.6192,312.9728,6.475778,0.0598089,0.77327745,299.2089,08/12.0/2021,2000,g 15.0,4.0
# From MPEC 2021-P47
193P/LINEAR-NEAT,e,10.6885,335.1745,8.1098,3.579467,0.1455380,0.39430963,358.0654,08/12.0/2021,2000,g 14.0,4.0
# From MPC 98566
194P/LINEAR,e,11.5688,350.3802,131.4973,3.988633,0.1237280,0.58382654,248.0921,08/12.0/2021,2000,g 16.0,4.0
# From MPC 75724
195P/Hill,e,36.3341,243.1215,249.2996,6.503652,0.0594249,0.31340244,274.0592,08/12.0/2021,2000,g  8.5,4.0
# From MPC 92985
196P/Tichy,e,19.2926,24.1591,12.1991,3.802580,0.1329188,0.42855494,301.0094,08/12.0/2021,2000,g 13.5,4.0
# From MPC 94676
197P/LINEAR,e,25.5334,66.3812,188.7498,2.867748,0.2029516,0.62955889,262.0431,08/12.0/2021,2000,g 16.5,2.0
# From NK 1596
198P/ODAS,e,1.3387,358.2548,69.1860,3.598558,0.1443814,0.44345474,140.3663,08/12.0/2021,2000,g  9.0,4.0
# From MPC 75725
199P/Shoemaker,e,24.9321,92.3781,191.6811,5.892660,0.0689028,0.50598743,309.9808,08/12.0/2021,2000,g 10.0,4.0
# From MPEC 2021-F20
200P/Larsen,e,12.1000,234.7872,134.1070,4.941549,0.0897242,0.33260749,66.8220,08/12.0/2021,2000,g  9.0,4.0
# From MPC 93588
201P/LONEOS,e,5.7390,19.7482,41.5448,3.353789,0.1604724,0.63701624,12.4085,08/12.0/2021,2000,g 14.0,4.0
# From MPEC 2021-N06
202P/Scotti,e,2.0842,178.0502,277.2530,4.060449,0.1204600,0.26613114,237.6651,08/12.0/2021,2000,g 13.5,4.0
# From MPEC 2021-F20
203P/Korlevic,e,2.9729,290.3420,154.8027,4.670854,0.0976359,0.31517521,51.2878,08/12.0/2021,2000,g 12.7,4.0
# From MPC 98566
204P/LINEAR-NEAT,e,6.6008,108.5949,356.2887,3.591642,0.1447986,0.48821262,293.1976,08/12.0/2021,2000,g 14.0,4.0
# From MPC 98566
205P/Giacobini,e,15.3045,179.6052,154.2099,3.542487,0.1478229,0.56807374,337.1716,08/12.0/2021,2000,g 13.0,4.0
# From MPC 75725
206P/Barnard-Boattini,e,33.6332,202.3448,189.4771,3.487779,0.1513145,0.55135565,24.2852,08/12.0/2021,2000,g 19.0,4.0
# From MPC 75725
207P/NEAT,e,10.1840,198.3862,272.9687,3.870821,0.1294194,0.75925563,243.1457,08/12.0/2021,2000,g 16.0,4.0
# From MPEC 2020-W26
208P/McMillan,e,4.4110,36.3444,310.4637,4.045136,0.1211447,0.37390334,225.8568,08/12.0/2021,2000,g 12.5,4.0
# From MPC 90771
209P/LINEAR,e,21.2561,62.7730,152.4636,2.959966,0.1935414,0.67305494,153.1868,08/12.0/2021,2000,g 17.0,2.0
# From MPC105242
210P/Christensen,e,10.2630,93.8299,345.8959,3.164184,0.1751102,0.83321654,85.9983,08/12.0/2021,2000,g 13.5,4.0
# From MPC 96868
211P/Hill,e,18.9212,117.1333,4.2590,3.546033,0.1476012,0.34342443,298.2147,08/12.0/2021,2000,g 12.5,4.0
# From MPEC 2021-F20
212P/NEAT,e,22.2443,98.3048,14.0831,3.888525,0.1285366,0.58813914,233.0893,08/12.0/2021,2000,g 17.0,2.0
# From MPC114608
213P/Van Ness,e,10.3825,311.2993,5.6520,3.347621,0.1609162,0.40826335,227.8685,08/12.0/2021,2000,g 10.5,4.0
# From MPC 92986
214P/LINEAR,e,15.1835,348.2502,190.2320,3.618032,0.1432173,0.48579384,301.2351,08/12.0/2021,2000,g 13.0,4.0
# From MPEC 2020-SI8
